{"type": "FeatureCollection", "features": [ {"type": "Feature", "properties": {"norad_id": 39778, "name": "IRIDIUM 33 DEB", "group": "iridium-33-debris", "lat": 69.19274488903284, "lon": 54.05523368114988, "alt_km": 699.6798013568705, "timestamp": "2025-12-09T21:34:11.794982+00:00", "meta": {"OBJECT_NAME": "IRIDIUM 33 DEB", "OBJECT_ID": "1997-051AAK", "EPOCH": "2025-12-09T14:38:46.743936", "MEAN_MOTION": 14.5422784, "ECCENTRICITY": 0.00083101, "INCLINATION": 86.3774, "RA_OF_ASC_NODE": 44.5837, "ARG_OF_PERICENTER": 51.0952, "MEAN_ANOMALY": 309.0995, "EPHEMERIS_TYPE": 0, "CLASSIFICATION_TYPE": "U", "NORAD_CAT_ID": 39778, "ELEMENT_SET_NO": 999, "REV_AT_EPOCH": 60647, "BSTAR": 0.0013887539, "MEAN_MOTION_DOT": 5.904e-05, "MEAN_MOTION_DDOT": 0}, "tle": {"line1": "1 39778U 97051AAK 25343.61026324  .00005904  00000+0  13888-2 0  9994", "line2": "2 39778  86.3774  44.5837 0008310  51.0952 309.0995 14.54227840606471"}}, "geometry": {"type": "Point", "coordinates": [54.05523368114988, 69.19274488903284]}}, {"type": "Feature", "properties": {"norad_id": 39781, "name": "IRIDIUM 33 DEB", "group": "iridium-33-debris", "lat": 12.53516715950481, "lon": 78.34154130699298, "alt_km": 877.2686209940703, "timestamp": "2025-12-09T21:34:11.794992+00:00", "meta": {"OBJECT_NAME": "IRIDIUM 33 DEB", "OBJECT_ID": "1997-051AAN", "EPOCH": "2025-12-09T13:09:45.576288", "MEAN_MOTION": 14.20481305, "ECCENTRICITY": 0.01781512, "INCLINATION": 86.3699, "RA_OF_ASC_NODE": 259.2946, "ARG_OF_PERICENTER": 283.4405, "MEAN_ANOMALY": 255.4968, "EPHEMERIS_TYPE": 0, "CLASSIFICATION_TYPE": "U", "NORAD_CAT_ID": 39781, "ELEMENT_SET_NO": 999, "REV_AT_EPOCH": 8061, "BSTAR": 0.0082391189, "MEAN_MOTION_DOT": 0.00020802, "MEAN_MOTION_DDOT": 0}, "tle": {"line1": "1 39781U 97051AAN 25343.54844417  .00020802  00000+0  82391-2 0  9990", "line2": "2 39781  86.3699 259.2946 0178151 283.4405 255.4968 14.20481305 80619"}}, "geometry": {"type": "Point", "coordinates": [78.34154130699298, 12.53516715950481]}}, {"type": "Feature", "properties": {"norad_id": 39783, "name": "IRIDIUM 33 DEB", "group": "iridium-33-debris", "lat": 49.160586153701516, "lon": -98.74765049138222, "alt_km": 464.6936710951586, "timestamp": "2025-12-09T21:34:11.795003+00:00", "meta": {"OBJECT_NAME": "IRIDIUM 33 DEB", "OBJECT_ID": "1997-051AAQ", "EPOCH": "2025-11-16T15:05:40.850592", "MEAN_MOTION": 15.19327111, "ECCENTRICITY": 0.00057535, "INCLINATION": 86.1306, "RA_OF_ASC_NODE": 268.8004, "ARG_OF_PERICENTER": 179.9151, "MEAN_ANOMALY": 1.8316, "EPHEMERIS_TYPE": 0, "CLASSIFICATION_TYPE": "U", "NORAD_CAT_ID": 39783, "ELEMENT_SET_NO": 999, "REV_AT_EPOCH": 60401, "BSTAR": 0.010398125, "MEAN_MOTION_DOT": 0.00226179, "MEAN_MOTION_DDOT": 0}, "tle": {"line1": "1 39783U 97051AAQ 25320.62894503  .00226179  00000+0  10398-1 0  9999", "line2": "2 39783  86.1306 268.8004 0005753 179.9151   1.8316 15.19327111604018"}}, "geometry": {"type": "Point", "coordinates": [-98.74765049138222, 49.160586153701516]}}, {"type": "Feature", "properties": {"norad_id": 40996, "name": "IRIDIUM 33 DEB", "group": "iridium-33-debris", "lat": -72.80871161283595, "lon": -9.167626403715728, "alt_km": 593.6555835741501, "timestamp": "2025-12-09T21:34:11.795013+00:00", "meta": {"OBJECT_NAME": "IRIDIUM 33 DEB", "OBJECT_ID": "1997-051ABJ", "EPOCH": "2025-12-09T01:09:30.547008", "MEAN_MOTION": 14.95892806, "ECCENTRICITY": 0.00121636, "INCLINATION": 86.3511, "RA_OF_ASC_NODE": 3.133, "ARG_OF_PERICENTER": 73.8642, "MEAN_ANOMALY": 316.0312, "EPHEMERIS_TYPE": 0, "CLASSIFICATION_TYPE": "U", "NORAD_CAT_ID": 40996, "ELEMENT_SET_NO": 999, "REV_AT_EPOCH": 62433, "BSTAR": 0.0032118853, "MEAN_MOTION_DOT": 0.00036132, "MEAN_MOTION_DDOT": 0}, "tle": {"line1": "1 40996U 97051ABJ 25343.04827022  .00036132  00000+0  32119-2 0  9994", "line2": "2 40996  86.3511   3.1330 0012163  73.8642 316.0312 14.95892806624333"}}, "geometry": {"type": "Point", "coordinates": [-9.167626403715728, -72.80871161283595]}}, {"type": "Feature", "properties": {"norad_id": 40998, "name": "IRIDIUM 33 DEB", "group": "iridium-33-debris", "lat": -2.8265261637961316, "lon": -124.95057882661177, "alt_km": 745.8168661590798, "timestamp": "2025-12-09T21:34:11.795024+00:00", "meta": {"OBJECT_NAME": "IRIDIUM 33 DEB", "OBJECT_ID": "1997-051ABL", "EPOCH": "2025-12-03T12:06:12.154176", "MEAN_MOTION": 14.45043538, "ECCENTRICITY": 0.00095708, "INCLINATION": 86.3836, "RA_OF_ASC_NODE": 57.6004, "ARG_OF_PERICENTER": 108.6038, "MEAN_ANOMALY": 309.9308, "EPHEMERIS_TYPE": 0, "CLASSIFICATION_TYPE": "U", "NORAD_CAT_ID": 40998, "ELEMENT_SET_NO": 999, "REV_AT_EPOCH": 6548, "BSTAR": 0.00081638604, "MEAN_MOTION_DOT": 2.87e-05, "MEAN_MOTION_DDOT": 0}, "tle": {"line1": "1 40998U 97051ABL 25337.50430734  .00002870  00000+0  81639-3 0  9994", "line2": "2 40998  86.3836  57.6004 0009570 108.6038 309.9308 14.45043538 65487"}}, "geometry": {"type": "Point", "coordinates": [-124.95057882661177, -2.8265261637961316]}}, {"type": "Feature", "properties": {"norad_id": 46435, "name": "IRIDIUM 33 DEB", "group": "iridium-33-debris", "lat": 0.9671508895446257, "lon": 15.108765201717747, "alt_km": 828.22046860913, "timestamp": "2025-12-09T21:34:11.795034+00:00", "meta": {"OBJECT_NAME": "IRIDIUM 33 DEB", "OBJECT_ID": "1997-051ABN", "EPOCH": "2025-12-08T08:41:01.195296", "MEAN_MOTION": 14.31888327, "ECCENTRICITY": 0.02102864, "INCLINATION": 86.2835, "RA_OF_ASC_NODE": 195.8323, "ARG_OF_PERICENTER": 290.5462, "MEAN_ANOMALY": 252.8586, "EPHEMERIS_TYPE": 0, "CLASSIFICATION_TYPE": "U", "NORAD_CAT_ID": 46435, "ELEMENT_SET_NO": 999, "REV_AT_EPOCH": 7853, "BSTAR": 0.0090831914, "MEAN_MOTION_DOT": 0.00031152, "MEAN_MOTION_DDOT": 0}, "tle": {"line1": "1 46435U 97051ABN 25342.36181939  .00031152  00000+0  90832-2 0  9995", "line2": "2 46435  86.2835 195.8323 0210286 290.5462 252.8586 14.31888327 78538"}}, "geometry": {"type": "Point", "coordinates": [15.108765201717747, 0.9671508895446257]}}, {"type": "Feature", "properties": {"norad_id": 46734, "name": "IRIDIUM 33 DEB", "group": "iridium-33-debris", "lat": -84.63553475494639, "lon": -39.97782207186372, "alt_km": 750.8777044651779, "timestamp": "2025-12-09T21:34:11.795044+00:00", "meta": {"OBJECT_NAME": "IRIDIUM 33 DEB", "OBJECT_ID": "1997-051ABR", "EPOCH": "2025-12-03T20:12:35.443296", "MEAN_MOTION": 14.41795233, "ECCENTRICITY": 0.00394426, "INCLINATION": 86.2642, "RA_OF_ASC_NODE": 6.7702, "ARG_OF_PERICENTER": 5.4679, "MEAN_ANOMALY": 171.2392, "EPHEMERIS_TYPE": 0, "CLASSIFICATION_TYPE": "U", "NORAD_CAT_ID": 46734, "ELEMENT_SET_NO": 999, "REV_AT_EPOCH": 62882, "BSTAR": 0.0014594249, "MEAN_MOTION_DOT": 4.83e-05, "MEAN_MOTION_DDOT": 0}, "tle": {"line1": "1 46734U 97051ABR 25337.84207689  .00004830  00000+0  14594-2 0  9999", "line2": "2 46734  86.2642   6.7702 0039442   5.4679 171.2392 14.41795233628829"}}, "geometry": {"type": "Point", "coordinates": [-39.97782207186372, -84.63553475494639]}}, {"type": "Feature", "properties": {"norad_id": 46965, "name": "IRIDIUM 33 DEB", "group": "iridium-33-debris", "lat": -43.67951079024713, "lon": 165.46593899047596, "alt_km": 705.5555804015194, "timestamp": "2025-12-09T21:34:11.795055+00:00", "meta": {"OBJECT_NAME": "IRIDIUM 33 DEB", "OBJECT_ID": "1997-051ABX", "EPOCH": "2025-12-09T11:22:29.536608", "MEAN_MOTION": 14.60256222, "ECCENTRICITY": 0.0018504, "INCLINATION": 86.3353, "RA_OF_ASC_NODE": 342.1454, "ARG_OF_PERICENTER": 344.7825, "MEAN_ANOMALY": 167.4281, "EPHEMERIS_TYPE": 0, "CLASSIFICATION_TYPE": "U", "NORAD_CAT_ID": 46965, "ELEMENT_SET_NO": 999, "REV_AT_EPOCH": 62220, "BSTAR": 0.0013057124, "MEAN_MOTION_DOT": 6.336e-05, "MEAN_MOTION_DDOT": 0}, "tle": {"line1": "1 46965U 97051ABX 25343.47395297  .00006336  00000+0  13057-2 0  9990", "line2": "2 46965  86.3353 342.1454 0018504 344.7825 167.4281 14.60256222622205"}}, "geometry": {"type": "Point", "coordinates": [165.46593899047596, -43.67951079024713]}}, {"type": "Feature", "properties": {"norad_id": 46971, "name": "IRIDIUM 33 DEB", "group": "iridium-33-debris", "lat": -81.25455925230418, "lon": -50.14138812231039, "alt_km": 579.3663462789846, "timestamp": "2025-12-09T21:34:11.795065+00:00", "meta": {"OBJECT_NAME": "IRIDIUM 33 DEB", "OBJECT_ID": "1997-051ACD", "EPOCH": "2025-11-30T18:57:44.502624", "MEAN_MOTION": 14.96904917, "ECCENTRICITY": 0.00065248, "INCLINATION": 86.3392, "RA_OF_ASC_NODE": 338.7285, "ARG_OF_PERICENTER": 8.9727, "MEAN_ANOMALY": 165.6369, "EPHEMERIS_TYPE": 0, "CLASSIFICATION_TYPE": "U", "NORAD_CAT_ID": 46971, "ELEMENT_SET_NO": 999, "REV_AT_EPOCH": 64051, "BSTAR": 0.0032009998, "MEAN_MOTION_DOT": 0.00036919, "MEAN_MOTION_DDOT": 0}, "tle": {"line1": "1 46971U 97051ACD 25334.79009841  .00036919  00000+0  32010-2 0  9999", "line2": "2 46971  86.3392 338.7285 0006524   8.9727 165.6369 14.96904917640518"}}, "geometry": {"type": "Point", "coordinates": [-50.14138812231039, -81.25455925230418]}}, {"type": "Feature", "properties": {"norad_id": 46974, "name": "IRIDIUM 33 DEB", "group": "iridium-33-debris", "lat": 77.98765725070287, "lon": -91.19114280270011, "alt_km": 742.344934013965, "timestamp": "2025-12-09T21:34:11.795076+00:00", "meta": {"OBJECT_NAME": "IRIDIUM 33 DEB", "OBJECT_ID": "1997-051ACG", "EPOCH": "2025-12-08T01:51:35.109216", "MEAN_MOTION": 14.44143429, "ECCENTRICITY": 0.0095872, "INCLINATION": 86.2996, "RA_OF_ASC_NODE": 107.3101, "ARG_OF_PERICENTER": 202.1724, "MEAN_ANOMALY": 157.532, "EPHEMERIS_TYPE": 0, "CLASSIFICATION_TYPE": "U", "NORAD_CAT_ID": 46974, "ELEMENT_SET_NO": 999, "REV_AT_EPOCH": 57441, "BSTAR": 0.006255, "MEAN_MOTION_DOT": 0.00022746, "MEAN_MOTION_DDOT": 0}, "tle": {"line1": "1 46974U 97051ACG 25342.07748969  .00022746  00000+0  62550-2 0  9998", "line2": "2 46974  86.2996 107.3101 0095872 202.1724 157.5320 14.44143429574414"}}, "geometry": {"type": "Point", "coordinates": [-91.19114280270011, 77.98765725070287]}}]}